[{"OBJECT_NAME":"STARLINK-4647","OBJECT_ID":"2022-104W","EPOCH":"2026-03-09T21:32:09.547008","MEAN_MOTION":15.0884147,"ECCENTRICITY":0.00012734,"INCLINATION":53.2172,"RA_OF_ASC_NODE":233.3809,"ARG_OF_PERICENTER":87.8287,"MEAN_ANOMALY":272.2851,"EPHEMERIS_TYPE":0,"CLASSIFICATION_TYPE":"U","NORAD_CAT_ID":53608,"ELEMENT_SET_NO":999,"REV_AT_EPOCH":19566,"BSTAR":8.3834508e-5,"MEAN_MOTION_DOT":1.047e-5,"MEAN_MOTION_DDOT":0},{"OBJECT_NAME":"FENGYUN 1C DEB","OBJECT_ID":"1999-025CDM","EPOCH":"2026-03-09T06:24:55.905408","MEAN_MOTION":15.0430028,"ECCENTRICITY":0.00202824,"INCLINATION":99.0326,"RA_OF_ASC_NODE":346.4521,"ARG_OF_PERICENTER":26.5298,"MEAN_ANOMALY":133.8427,"EPHEMERIS_TYPE":0,"CLASSIFICATION_TYPE":"U","NORAD_CAT_ID":31714,"ELEMENT_SET_NO":999,"REV_AT_EPOCH":97342,"BSTAR":0.0098433176,"MEAN_MOTION_DOT":0.00140271,"MEAN_MOTION_DDOT":0}]
